ONEWEB-0029             
1 45445U 20020X   26108.20031994 -.00000296  00000+0 -87226-3 0  9997
2 45445  87.8930  32.9901 0001893  80.9370 279.1972 13.11416036294795
ONEWEB-0068             
1 45446U 20020Y   26108.26037660 -.00003987  00000+0 -11289-1 0  9994
2 45446  87.8927  32.9717 0001819  68.8901 291.2422 13.11433271294740
ONEWEB-0046             
1 45447U 20020Z   26108.02315310  .00000244  00000+0  65184-3 0  9996
2 45447  87.8928  33.0259 0001745  86.5712 273.5616 13.11414272294726
ONEWEB-0063             
1 45448U 20020AA  26108.20455760 -.00000295  00000+0 -86685-3 0  9998
2 45448  87.8932  32.9876 0001605  82.1291 278.0019 13.11415939294834
ONEWEB-0019             
1 45449U 20020AB  26108.16713464  .00000573  00000+0  15805-2 0  9994
2 45449  87.8923  32.9854 0001929  74.3169 285.8172 13.11415836294671
ONEWEB-0094             
1 45450U 20020AC  26108.21336492  .00000035  00000+0  58215-4 0  9991
2 45450  87.9198  17.7577 0002026  78.4906 281.6453 13.17650694298415
ONEWEB-0087             
1 45451U 20020AD  26108.06200732 -.00000155  00000+0 -47276-3 0  9991
2 45451  87.8942  32.9852 0002174  83.5449 276.5927 13.11418925294700
ONEWEB-0082             
1 45452U 20020AE  26108.21134152 -.00000488  00000+0 -14128-2 0  9999
2 45452  87.8975  32.9778 0002575  83.4789 276.6632 13.11416591294818
ONEWEB-0050             
1 45453U 20020AF  26108.31312190  .00000251  00000+0  23662-4 0  9992
2 45453  88.9244 241.3410 0004490 143.6978 216.4556 14.90150757331463
ONEWEB-0034             
1 45454U 20020AG  26108.23252949  .00000570  00000+0  15710-2 0  9996
2 45454  87.8926  32.9756 0001856  78.1344 281.9992 13.11420175294733
ONEWEB-0060             
1 45455U 20020AH  26108.20370354 -.00000395  00000+0 -11505-2 0  9990
2 45455  87.8929  32.9909 0002753  89.6977 270.4466 13.11414997294681
ONEWEB-0086             
1 45456U 20020AJ  26108.18252662 -.00000004  00000+0 -47344-4 0  9998
2 45456  87.8931  32.9856 0002572  74.8241 285.3172 13.11414376294742
ONEWEB-0088             
1 45457U 20020AK  26108.23677125  .00000643  00000+0  17791-2 0  9998
2 45457  87.8938  32.9423 0001602  89.9147 270.2164 13.11415239294681
ONEWEB-0102             
1 47258U 20100A   26108.13531094  .00000003  00000+0 -27536-4 0  9992
2 47258  87.8995   2.6095 0002018  76.7389 283.3964 13.12443301256850
ONEWEB-0109             
1 47259U 20100B   26108.14378579  .00000362  00000+0  96991-3 0  9998
2 47259  87.9007   2.5855 0001780  75.4129 284.7196 13.12443204256687
ONEWEB-0110             
1 47260U 20100C   26108.09466005  .00000197  00000+0  51255-3 0  9996
2 47260  87.9009   2.5799 0002017  78.5359 281.5996 13.12441567256842
ONEWEB-0111             
1 47261U 20100D   26108.12514230 -.00000331  00000+0 -95536-3 0  9997
2 47261  87.9002   2.5924 0001874  82.4063 277.7279 13.12443513256688
ONEWEB-0114             
1 47262U 20100E   26108.15564247 -.00001105  00000+0 -31082-2 0  9999
2 47262  87.9016   2.5828 0001473  72.2915 287.8374 13.12450589256640
ONEWEB-0117             
1 47263U 20100F   26108.14717210  .00000400  00000+0  10778-2 0  9993
2 47263  87.9004   2.5772 0001796  78.7329 281.4002 13.12442681256657
ONEWEB-0118             
1 47264U 20100G   26108.10481726 -.00000301  00000+0 -87254-3 0  9996
2 47264  87.9007   2.5880 0001492  79.5346 280.5951 13.12440537256844
ONEWEB-0119             
1 47265U 20100H   26108.13022866 -.00000144  00000+0 -43488-3 0  9992
2 47265  87.8990   2.6052 0001816  79.5429 280.5904 13.12443080256821
ONEWEB-0120             
1 47266U 20100J   26108.15408830  .00000921  00000+0  25245-2 0  9995
2 47266  87.8995   2.6013 0002179  80.4072 279.7303 13.12439493256851
ONEWEB-0121             
1 47267U 20100K   26108.14209184  .00000288  00000+0  76392-3 0  9992
2 47267  87.9006   2.5840 0002006  80.6150 279.5205 13.12442864256766
ONEWEB-0122             
1 47268U 20100L   26108.13616280  .00000083  00000+0  19446-3 0  9991
2 47268  87.9010   2.5884 0001910  75.0499 285.0841 13.12443015256674
ONEWEB-0123             
1 47269U 20100M   26108.13191945 -.00000115  00000+0 -35575-3 0  9997
2 47269  87.8994   2.6038 0001668  80.4406 279.6911 13.12443838256811
ONEWEB-0124             
1 47270U 20100N   26108.12175383 -.00000431  00000+0 -12328-2 0  9997
2 47270  87.8992   2.6101 0001836  83.0849 277.0488 13.12443365256691
ONEWEB-0125             
1 47271U 20100P   26108.09974108 -.00000011  00000+0 -65001-4 0  9998
2 47271  87.9010   2.5905 0001733  90.6202 269.5125 13.12441533256754
ONEWEB-0126             
1 47272U 20100Q   26108.12019700 -.00000140  00000+0 -42585-3 0  9995
2 47272  87.9002   2.6054 0001645  76.2544 283.8768 13.12442298256822
ONEWEB-0127             
1 47273U 20100R   26108.16242886  .00000365  00000+0  98017-3 0  9991
2 47273  87.8995   2.5995 0001764  74.7286 285.4037 13.12442623256856
ONEWEB-0128             
1 47274U 20100S   26108.10820895 -.00000371  00000+0 -10658-2 0  9991
2 47274  87.9000   2.6242 0002132  79.2659 280.8710 13.12440855256868
ONEWEB-0129             
1 47275U 20100T   26108.16411754  .00000430  00000+0  11602-2 0  9992
2 47275  87.9007   2.5805 0001652  40.1876 319.9374 13.12441582256806
ONEWEB-0130             
1 47276U 20100U   26108.11497741 -.00000386  00000+0 -11086-2 0  9996
2 47276  87.9007   2.5851 0001828  75.8654 284.2678 13.12442884256764
ONEWEB-0131             
1 47277U 20100V   26108.11159044 -.00000501  00000+0 -14275-2 0  9990
2 47277  87.8995   2.6102 0001855  78.8250 281.3087 13.12442471256804
ONEWEB-0132             
1 47278U 20100W   26108.14039674  .00000253  00000+0  66760-3 0  9999
2 47278  87.8996   2.6049 0001854  80.1601 279.9737 13.12443367256700
ONEWEB-0133             
1 47279U 20100X   26107.69978461  .00000413  00000+0  11140-2 0  9994
2 47279  87.9011   2.6615 0001952  79.4397 280.6952 13.12441786256803
ONEWEB-0134             
1 47280U 20100Y   26108.12683637 -.00000258  00000+0 -75159-3 0  9993
2 47280  87.9008   2.5740 0001962  72.7866 287.3477 13.12443394256833
ONEWEB-0135             
1 47281U 20100Z   26108.17428385  .00000084  00000+0  19931-3 0  9997
2 47281  87.8996   2.5951 0002043  73.6052 286.5301 13.12440919256861
ONEWEB-0136             
1 47282U 20100AA  26108.11667781 -.00000473  00000+0 -13497-2 0  9991
2 47282  87.9002   2.5830 0001993  70.9962 289.1383 13.12442489256784
ONEWEB-0137             
1 47283U 20100AB  26108.15056817  .00000509  00000+0  13785-2 0  9996
2 47283  87.9010   2.5833 0001670  81.8042 278.3277 13.12443948256692
ONEWEB-0138             
1 47284U 20100AC  26108.12855007 -.00001179  00000+0 -33148-2 0  9993
2 47284  87.9011   2.5962 0001729  73.3705 286.7614 13.12428078256778
ONEWEB-0139             
1 47285U 20100AD  26108.16934499  .00000282  00000+0  74967-3 0  9998
2 47285  87.9005   2.5745 0001772  77.5632 282.5695 13.12440667256854
ONEWEB-0140             
1 47286U 20100AE  26108.12345187 -.00000414  00000+0 -11867-2 0  9993
2 47286  87.9002   2.5733 0001925  80.9084 279.2262 13.12443158256815
ONEWEB-0141             
1 47287U 20100AF  26108.16906455  .00000316  00000+0  84418-3 0  9991
2 47287  87.9007   2.5698 0001471  82.9331 277.1965 13.12441246256806
ONEWEB-0142             
1 47288U 20100AG  26108.15748130  .00000544  00000+0  14762-2 0  9992
2 47288  87.9005   2.5962 0001410  70.2136 289.9145 13.12442567256791
ONEWEB-0143             
1 47289U 20100AH  26108.16750892  .00000359  00000+0  96122-3 0  9997
2 47289  87.9006   2.5907 0001742  79.4121 280.7204 13.12441543256771
ONEWEB-0144             
1 47290U 20100AJ  26108.13868861  .00000092  00000+0  22177-3 0  9995
2 47290  87.9005   2.5678 0001695  67.8463 292.2845 13.12446668256697
ONEWEB-0145             
1 47291U 20100AK  26108.10990087 -.00000352  00000+0 -10145-2 0  9991
2 47291  87.9003   2.6078 0001782  76.6403 283.4924 13.12441693256884
ONEWEB-0146             
1 47292U 20100AL  26108.18274949 -.00000262  00000+0 -76239-3 0  9999
2 47292  87.9006   2.5808 0002019  87.3139 272.8220 13.12441069256807
ONEWEB-0147             
1 47293U 20100AM  26108.14886691  .00000415  00000+0  11186-2 0  9996
2 47293  87.9007   2.5683 0001917  77.3289 282.8053 13.12442416256690
ONEWEB-0115             
1 48042U 21025A   26108.14777620  .00000388  00000+0  10279-2 0  9998
2 48042  87.8985 332.1794 0001783  84.9742 275.1591 13.13469210245716
ONEWEB-0152             
1 48043U 21025B   26108.16131650  .00000245  00000+0  63690-3 0  9996
2 48043  87.8980 332.1757 0001815  85.7265 274.4072 13.13468903245675
ONEWEB-0153             
1 48044U 21025C   26108.13931062  .00000344  00000+0  90593-3 0  9991
2 48044  87.8975 332.1845 0001671  81.8878 278.2441 13.13469753245660
ONEWEB-0154             
1 48045U 21025D   26108.13590623  .00000354  00000+0  93435-3 0  9995
2 48045  87.8973 332.1827 0001817  81.6556 278.4779 13.13468980245625
ONEWEB-0116             
1 48046U 21025E   26108.09867578 -.00000136  00000+0 -40793-3 0  9996
2 48046  87.8987 332.1812 0001834  85.8809 274.2529 13.13468924245761
ONEWEB-0150             
1 48047U 21025F   26108.15116098  .00000406  00000+0  10780-2 0  9998
2 48047  87.8987 332.1690 0001548  87.0706 273.0600 13.13469153245669
ONEWEB-0107             
1 48048U 21025G   26108.15284523  .00000381  00000+0  10074-2 0  9996
2 48048  87.8989 332.1639 0001543  76.2561 283.8740 13.13469518245646
ONEWEB-0101             
1 48049U 21025H   26108.11559858 -.00000196  00000+0 -57074-3 0  9997
2 48049  87.8978 332.1928 0001753  78.2197 281.9128 13.13470065245611
ONEWEB-0113             
1 48050U 21025J   26108.16001904  .00000201  00000+0  51055-3 0  9996
2 48050  87.8985 332.1000 0001902  92.7337 267.4010 13.13948599245728
ONEWEB-0112             
1 48051U 21025K   26108.15793009  .00000321  00000+0  84313-3 0  9996
2 48051  87.8991 332.1606 0001752  74.7405 285.3918 13.13468611245714
